#dP2025  1  2  6  0  0.00000000      96 __u+U IGS20 EXT  IAC
## 2347 367200.00000000   900.00000000 60677 0.2500000000000
+   53   G01G02G03G04G05G06G07G08G09G10G11G12G13G14G15G16G17
+        G18G19G20G21G22G23G24G25G26G27G28G29G30G31G32R01R02
+        R03R04R05R07R08R09R11R12R14R15R16R17R18R19R20R21R22
+        R24R26  0  0  0  0  0  0  0  0  0  0  0  0  0  0  0
+          0  0  0  0  0  0  0  0  0  0  0  0  0  0  0  0  0
++        11  8  8  8  8  8  8  7  8  8  8  8  8  8  8  7  8
++         8  8  8  8  8  8  8  8  8  8  8  8  9  8  8  8  8
++         8  8  9  8  8  9 10  8  8  8  9  8  8  8  8  7  8
++         8  9  0  0  0  0  0  0  0  0  0  0  0  0  0  0  0
++         0  0  0  0  0  0  0  0  0  0  0  0  0  0  0  0  0
%c M  cc GPS ccc cccc cccc cccc cccc ccccc ccccc ccccc ccccc
%c cc cc ccc ccc cccc cccc cccc cccc ccccc ccccc ccccc ccccc
%f  0.0000000  0.000000000  0.00000000000  0.000000000000000
%f  0.0000000  0.000000000  0.00000000000  0.000000000000000
%i    0    0    0    0      0      0      0      0         0
%i    0    0    0    0      0      0      0      0         0
/* IAC                                ULTRA-RAPID PREDICTION
/* S/V CLOCKS ARE ALIGNED TO GNSS TIME                      
/* G:C1WC2W R:C1PC2P E:C1XC5X C:C2IC6I J:C1CC2S             
/* PCV:IGS20_2317 OL/AL:FES2004  NONE     YN ORB:CoN CLK:CoN
*  2025 01 02 22 30  0.00000000
PG01  14615.594102 -10935.569115  19300.420307     14.686521
PG02  13976.246157  -8982.852720  21104.731682   -277.202284
PG03  23316.790270 -12579.915425    283.240467    638.240384
PG04  17438.038313  -4737.041482 -19500.090608    505.890361
PG05 -22334.266511   2367.252973 -14404.684349   -197.878845
PG06  -6059.716822 -23583.826297 -10386.824579    -90.612808
PG07   7000.306703 -23408.040831  -9306.087711    -14.015484
PG08  23894.128646   3828.597549  11327.604376    452.651583
PG09   9156.764408 -12311.237697 -21777.833246    513.120832
PG10   1921.145626  15355.943624  21767.504698   -260.354995
PG11 -12339.019830 -13799.086074 -19027.282641   -752.470151
PG12 -24633.054049   9336.076993   2905.383521   -562.162927
PG13 -22394.193189 -13306.518865   5569.536533    692.184266
PG14   2185.980724 -17450.212199  19882.180797    572.536815
PG15 -23894.383062   -685.577189  11205.566000    247.045119
PG16  20027.316792   4415.755278 -17475.158835    -87.535906
PG17  -6357.467437 -19088.815880  17641.378660    491.870871
PG18  -6017.189542  24583.796148  -7631.445846   -659.082873
PG19 -15722.449555 -19617.272403   9081.981854    581.507623
PG20 -14807.919878  -6850.061487 -20846.676401    367.378152
PG21  15382.655654   -713.801080  22015.304996     99.722534
PG22  -5442.150287 -14452.114913  22000.881580    -90.158850
PG23 -12569.816847  18469.950546  14224.631696    396.147471
PG24 -14648.068995   6890.259602  20530.632553   -467.880928
PG25 -17916.983945  17592.505984  -8590.773700    497.309711
PG26  11533.889569  11364.244105 -21269.687526    -32.790903
PG27  23491.117835  12825.775863   1094.314660    -33.537831
PG28   6185.661979  24463.803414  -8302.414616   -525.304985
PG29  -9848.874632  11469.105448 -21887.379303   -550.582007
PG30   -922.597276 -26352.376711   1681.633104   -247.732857
PG31  10991.562584  17775.926506 -16421.287782   -218.713580
PG32  11811.819910  18859.724054  14883.620719   -548.549265
PR01   -896.342342 -11102.820757 -22945.179128    109.895619
PR02 -17691.993735 -10561.317202 -14939.751196    -38.760146
PR03 -25120.616180  -3778.252004   1940.759163    114.311159
PR04 -18463.508856   4335.626390  17077.031242    270.979519
PR05  -2069.221867  10454.300018  23187.033494    143.153604
PR07  25170.782453   3726.671022  -2140.654883     98.126310
PR08  18312.946450  -4652.221320 -17097.103211     -6.241557
PR09   5041.989517  11408.263156 -22247.789174    229.819296
PR11  18214.113721 -16198.393895  -7484.374837      1.802306
PR12   9678.413836 -20344.758033  11991.844470     49.153204
PR14 -15762.409126   4000.219781  19662.699521     27.537702
PR15 -18081.589152  17065.600194   5724.774232     72.556161
PR16  -9815.691006  20357.058777 -11860.359586     32.144655
PR17 -12706.863356  -7450.302941 -20821.928085    154.036108
PR18  -7469.545797   9714.488488 -22358.310556    179.969294
PR19   -325.590887  21211.443653 -14156.968807   -304.169604
PR20   9820.064896  22569.611606   6794.131942   -124.120288
PR21  12695.090966   8750.804964  20318.702872   -164.873893
PR22   7521.712912 -10845.337034  21856.666445    -53.965179
PR24 -11191.327898 -21782.280462  -7141.685678    -86.593673
PR26  19629.200514  -3895.088947 -15785.302534   -132.189495
*  2025 01 02 22 45  0.00000000
PG01  14579.848026  -8660.190503  20448.941444     14.718379
PG02  14286.924747  -6639.905739  21802.117841   -277.194149
PG03  23225.503224 -12308.288153   3189.392886    638.247562
PG04  19217.396516  -3533.681176 -18042.922948    505.895746
PG05 -20974.534008   1283.603463 -16458.488944   -197.879782
PG06  -5891.117853 -24629.785311  -7724.471349    -90.637531
PG07   7315.717837 -22118.534217 -11791.393096    -14.014948
PG08  24828.310100   4550.701860   8844.611317    452.659034
PG09  11314.306094 -11151.761600 -21389.320740    513.134737
PG10   -167.391186  16528.992727  20939.458463   -260.369374
PG11 -12150.369996 -15886.941447 -17464.156467   -752.469682
PG12 -24281.595537   8867.916568   5707.086810   -562.164927
PG13 -22670.206778 -13767.823895   2755.502990    692.185466
PG14   4172.322187 -18421.693789  18624.981454    572.543435
PG15 -24933.988799  -1363.906478   8731.903508    247.049245
PG16  18270.277926   5398.437654 -19045.261765    -87.527344
PG17  -4564.405192 -18107.634680  19215.979838    491.855608
PG18  -6231.340723  23550.540809 -10273.207469   -659.081960
PG19 -14641.789021 -19091.361157  11582.499663    581.511794
PG20 -13015.869693  -8507.996099 -21433.112338    367.377874
PG21  15679.931132   1692.917244  21845.338594     99.724041
PG22  -3260.920625 -15498.017755  21741.215184    -90.160813
PG23 -13919.098582  19128.589709  11879.076489    396.154306
PG24 -15012.892265   4429.728440  20967.742702   -467.877621
PG25 -18742.206799  17772.858178  -5908.931434    497.309250
PG26   9582.070624  12782.713102 -21399.054216    -32.804266
PG27  23380.938429  13023.225833  -1732.469250    -33.537404
PG28   5983.309807  25268.151921  -5595.773338   -525.314015
PG29 -11903.357566  10093.372431 -21551.531348   -550.579066
PG30   -573.802395 -26375.058125  -1137.740988   -247.725386
PG31  10775.792292  19514.128833 -14406.971167   -218.712888
PG32  10182.704986  18151.424058  16849.402496   -548.543346
PR01   1920.733975 -10751.401605 -23048.796421    109.896725
PR02 -15739.038850 -10116.756180 -17252.630446    -38.759966
PR03 -25179.446572  -3621.374463  -1285.251223    114.311698
PR04 -20418.596289   4149.431561  14730.706842    270.980884
PR05  -4878.929178   9994.415149  22965.351581    143.154132
PR07  25267.182759   3567.142332   1076.767793     98.126962
PR08  20285.762252  -4470.537501 -14772.321068     -6.241688
PR09   3461.815711  13582.355826 -21316.704706    229.821234
PR11  17427.625346 -15407.890120 -10441.556373      1.800356
PR12  10393.930907 -21438.063482   9148.587117     49.153731
PR14 -14178.614045   2047.927843  21113.869229     27.537892
PR15 -17432.383265  16441.865564   8762.778808     72.555800
PR16 -10503.443927  21452.917499  -8997.121135     32.144931
PR17 -13680.859862  -9726.341483 -19207.618937    154.039160
PR18  -8400.778960   7066.088718 -23007.310861    179.970964
PR19   -772.334290  19356.328384 -16587.818966   -304.170826
PR20  10225.296805  23111.707242   3635.385655   -124.120725
PR21  13633.585629  10963.270807  18558.718898   -164.876830
PR22   8380.059425  -8243.169218  22667.831918    -53.966852
PR24 -11576.266225 -22375.415082  -4025.939076    -86.595059
PR26  21427.791506  -3760.064941 -13282.919758   -132.189208
EOF
